SPACEBEE-78             
1 47710U 21015M   22326.17464412  .00671172  00000+0  28121-2 0  9991
2 47710  97.3884  48.2894 0009674 277.3178  82.6992 15.83873990 96729
SPACEBEE-76             
1 47711U 21015N   22325.67779180  .02509627  69291-2  35223-2 0  9995
2 47711  97.3738  48.6244 0008048 294.4592  65.5850 16.07531269 96703
SPACEBEE-80             
1 47712U 21015P   22326.21341203  .00395961  00000+0  24162-2 0  9990
2 47712  97.3923  47.9429 0007022 260.6210  99.4262 15.76273554 96708
SPACEBEE-77             
1 47714U 21015Q   22326.18391153  .02009512  30445-2  32336-2 0  9994
2 47714  97.3792  49.0500 0009885 294.8763  65.1489 16.04231622 96699
SPACEBEE-79             
1 47715U 21015R   22325.82413037  .00354975  00000+0  24507-2 0  9997
2 47715  97.3965  47.5150 0005124 241.3652 118.7097 15.73527773 96636
SPACEBEE-65             
1 48626U 21006ES  22326.09274814  .00042118  00000+0  12955-2 0  9994
2 48626  97.1885   9.0787 0011423  61.4051 298.8340 15.33484910101469
SPACEBEE-64             
1 48627U 21006ET  22325.66845824  .00041548  00000+0  12645-2 0  9994
2 48627  97.1890   8.7405 0011312  62.3209 297.9180 15.33826020101409
SPACEBEE-66             
1 48628U 21006EU  22326.09761730  .00038906  00000+0  12267-2 0  9990
2 48628  97.1886   8.9203 0011567  61.7729 298.4680 15.32711652101454
SPACEBEE-67             
1 48629U 21006EV  22325.86300833  .00037675  00000+0  12005-2 0  9990
2 48629  97.1888   8.6321 0011724  63.1035 297.1404 15.32379165101411
SPACEBEE-68             
1 48630U 21006EW  22326.35307187  .00030384  00000+0  97767-3 0  9995
2 48630  97.1886   9.0345 0011847  61.3859 298.8573 15.32110514101485
SPACEBEE-69             
1 48631U 21006EX  22326.12566438  .00030619  00000+0  99648-3 0  9998
2 48631  97.1890   8.7441 0012092  62.3182 297.9285 15.31740479101441
SPACEBEE-70             
1 48632U 21006EY  22325.63849859  .00032250  00000+0  10589-2 0  9994
2 48632  97.1893   8.1902 0012292  64.3494 295.9016 15.31442645101366
SPACEBEE-71             
1 48633U 21006EZ  22325.68358157  .00032512  00000+0  10792-2 0  9993
2 48633  97.1887   8.1264 0012437  64.1494 296.1028 15.31087474101361
SPACEBEE-72             
1 48634U 21006FA  22326.07842501  .00033242  00000+0  11221-2 0  9998
2 48634  97.1888   8.3617 0012616  62.8225 297.4301 15.30537796101413
SPACEBEE-73             
1 48635U 21006FB  22325.65603029  .00030670  00000+0  10459-2 0  9996
2 48635  97.1895   7.8752 0012955  65.2413 295.0175 15.30218884101347
SPACEBEE-74             
1 48636U 21006FC  22325.61457891  .00030194  00000+0  10546-2 0  9995
2 48636  97.1893   7.6354 0013239  65.7740 294.4883 15.29440408101320
SPACEBEE-75             
1 48637U 21006FD  22325.67366690  .00029449  00000+0  10432-2 0  9993
2 48637  97.1891   7.5529 0013681  65.8029 294.4640 15.28978948101329
SPACEBEENZ-10           
1 48882U 21059D   22325.88402886  .00019975  00000+0  84516-3 0  9992
2 48882  97.5695  96.0240 0006926 276.3584  83.6864 15.23213290 77863
SPACEBEE-100            
1 48883U 21059E   22326.36392848  .00009932  00000+0  47419-3 0  9996
2 48883  97.5737  95.6391 0007219 274.7386  85.3023 15.19234428 77879
SPACEBEE-101            
1 48884U 21059F   22325.86081399  .00011447  00000+0  54978-3 0  9999
2 48884  97.5736  95.0900 0007093 280.7754  79.2682 15.18988252 77799
SPACEBEE-102            
1 48886U 21059H   22325.91219438  .00011570  00000+0  55536-3 0  9992
2 48886  97.5734  95.1746 0006790 277.8736  82.1727 15.19008826 77804
SPACEBEENZ-9            
1 48887U 21059J   22325.88510912  .00020182  00000+0  85362-3 0  9999
2 48887  97.5693  96.0165 0006829 277.1677  82.8782 15.23222663 77860
SPACEBEE-103            
1 48888U 21059K   22325.59903900  .00011080  00000+0  52651-3 0  9993
2 48888  97.5738  94.9859 0007333 278.3502  81.6901 15.19367871 77764
SPACEBEENZ-7            
1 48889U 21059L   22326.36106352  .00017315  00000+0  72831-3 0  9995
2 48889  97.5717  96.7470 0007275 274.8401  85.2005 15.23441723 77944
SPACEBEE-104            
1 48890U 21059M   22325.88672674  .00011667  00000+0  55232-3 0  9998
2 48890  97.5735  95.1824 0007119 281.0036  79.0398 15.19484842 77808
SPACEBEENZ-8            
1 48891U 21059N   22325.84715390  .00020139  00000+0  85100-3 0  9999
2 48891  97.5714  96.2030 0007365 276.7850  83.2548 15.23251046 77868
SPACEBEE-106            
1 48893U 21059Q   22326.32889564  .00009628  00000+0  46032-3 0  9991
2 48893  97.5758  95.8277 0007678 278.6168  81.4196 15.19191015 77870
SPACEBEE-107            
1 48894U 21059R   22325.59971187  .00011837  00000+0  55454-3 0  9996
2 48894  97.5761  95.2692 0007537 280.0374  80.0010 15.19842513 77775
SPACEBEE-108            
1 48895U 21059S   22325.79945342  .00011141  00000+0  53221-3 0  9991
2 48895  97.5750  95.2779 0007805 280.0682  79.9672 15.19178222 77792
SPACEBEE-105            
1 48896U 21059T   22326.37152830  .00010716  00000+0  50868-3 0  9990
2 48896  97.5737  95.6130 0007336 267.4707  92.5687 15.19413434 77872
SPACEBEE-109            
1 48897U 21059U   22325.81951465  .00011821  00000+0  55704-3 0  9992
2 48897  97.5757  95.4036 0007796 277.8392  82.1957 15.19637673 77804
SPACEBEE-110            
1 48899U 21059W   22325.87213999  .00011611  00000+0  54261-3 0  9997
2 48899  97.5760  95.6767 0007960 275.6508  84.3819 15.19927930 77822
SPACEBEE-111            
1 48904U 21059AB  22326.36629028  .00010827  00000+0  49874-3 0  9995
2 48904  97.5770  96.4457 0008777 273.0271  86.9960 15.20440309 77918
SPACEBEE-92             
1 48932U 21059BF  22325.91012021  .00059503  00000+0  16230-2 0  9998
2 48932  97.5569  99.6558 0012478 263.3725  96.6099 15.37163909 78133
SPACEBEE-89             
1 48933U 21059BG  22325.86881110  .00068489  00000+0  17320-2 0  9990
2 48933  97.5559  99.9918 0012076 262.4242  97.5631 15.39459862 78156
SPACEBEE-96             
1 48934U 21059BH  22326.16273752  .00046215  00000+0  13224-2 0  9994
2 48934  97.5579  99.6478 0012670 262.6166  97.3638 15.35733094 78157
SPACEBEE-88             
1 48935U 21059BJ  22325.89262865  .00071619  00000+0  17651-2 0  9991
2 48935  97.5536 100.0741 0012319 262.9437  97.0408 15.40228932 78164
SPACEBEE-99             
1 48936U 21059BK  22325.88350101  .00044685  00000+0  13413-2 0  9997
2 48936  97.5590  99.1230 0012640 264.1543  95.8259 15.34233819 78090
SPACEBEE-94             
1 48937U 21059BL  22325.89606815  .00053768  00000+0  14946-2 0  9999
2 48937  97.5565  99.5013 0012542 263.9871  95.9944 15.36601823 78120
SPACEBEE-93             
1 48939U 21059BN  22325.59886976  .00066283  00000+0  16998-2 0  9991
2 48939  97.5557  99.5807 0012869 263.4704  96.5076 15.39031417 78106
SPACEBEE-91             
1 48940U 21059BP  22325.91420447  .00066227  00000+0  17072-2 0  9998
2 48940  97.5562  99.9386 0012720 263.2720  96.7078 15.38874545 78157
SPACEBEE-95             
1 48945U 21059BU  22326.18250361  .00045852  00000+0  12586-2 0  9995
2 48945  97.5580  99.9308 0012799 261.9796  97.9996 15.37031033 78170
SPACEBEE-97             
1 48946U 21059BV  22325.82408694  .00045000  00000+0  13268-2 0  9993
2 48946  97.5578  99.1823 0012137 264.5041  95.4818 15.34803806 78099
SPACEBEE-90             
1 48947U 21059BW  22325.89231638  .00064933  00000+0  16609-2 0  9991
2 48947  97.5558  99.9612 0012260 261.8759  98.1095 15.39124341 78154
SPACEBEE-98             
1 48949U 21059BY  22325.88060446  .00045618  00000+0  13397-2 0  9999
2 48949  97.5616  99.3162 0013362 263.2537  96.7185 15.34909440 78104
SPACEBEE-121            
1 52009U 22026B   22325.55607710  .00012215  00000+0  58400-3 0  9993
2 52009  97.5059 323.8340 0027832  88.2749 272.1673 15.18799729 38003
SPACEBEE-114            
1 52010U 22026C   22325.53612271  .00011638  00000+0  55243-3 0  9991
2 52010  97.5088 323.9288 0027124  89.9485 270.4858 15.19078819 38016
SPACEBEE-126            
1 52011U 22026D   22325.54169395  .00011967  00000+0  56789-3 0  9998
2 52011  97.5074 323.8757 0027529  87.3929 273.0456 15.19072544 38007
SPACEBEE-118            
1 52012U 22026E   22325.55116530  .00012376  00000+0  58104-3 0  9991
2 52012  97.5077 324.0433 0026363  91.1664 269.2591 15.19463239 38023
SPACEBEE-120            
1 52013U 22026F   22325.57725308  .00011561  00000+0  54659-3 0  9999
2 52013  97.5071 323.9769 0028443  85.3514 275.0968 15.19185197 38014
SPACEBEE-122            
1 52014U 22026G   22325.76990193  .00012080  00000+0  56970-3 0  9992
2 52014  97.5069 324.1844 0027185  87.0489 273.3856 15.19293402 38040
SPACEBEE-119            
1 52015U 22026H   22325.55217691  .00012272  00000+0  58657-3 0  9992
2 52015  97.5080 323.8958 0028073  88.6408 271.8042 15.18802543 38008
SPACEBEE-115            
1 52016U 22026J   22326.24351763  .00009344  00000+0  44366-3 0  9997
2 52016  97.5082 324.6687 0027670  86.1454 274.2943 15.19119314 38112
SPACEBEENZ-14           
1 52018U 22026L   22325.54615102  .00015465  00000+0  70180-3 0  9995
2 52018  97.5071 324.1944 0027059  87.1631 273.2700 15.20562423 38027
SPACEBEENZ-11           
1 52019U 22026M   22326.44603877  .00012181  00000+0  54828-3 0  9995
2 52019  97.5068 325.1362 0026997  83.8828 276.5482 15.20900100 38122
SPACEBEE-127            
1 52020U 22026N   22326.45556873  .00009238  00000+0  44080-3 0  9999
2 52020  97.5072 324.8069 0027691  85.0972 275.3422 15.18951317 38095
SPACEBEE-125            
1 52021U 22026P   22325.92750402  .00011307  00000+0  52602-3 0  9994
2 52021  97.5064 324.4150 0029306  86.3030 274.1555 15.19725570 37946
SPACEBEE-117            
1 52022U 22026Q   22326.44853593  .00009088  00000+0  43259-3 0  9999
2 52022  97.5082 324.8556 0027721  85.1866 275.2533 15.19037857 38015
SPACEBEE-116            
1 52023U 22026R   22326.17054924  .00009181  00000+0  43534-3 0  9991
2 52023  97.5083 324.6161 0027462  86.4138 274.0237 15.19174101 37971
SPACEBEE-113            
1 52024U 22026S   22325.56878153  .00012592  00000+0  59316-3 0  9997
2 52024  97.5079 324.0258 0029273  85.1591 275.2985 15.19270204 37883
